[{"OBJECT_NAME":"STARLINK-1402","OBJECT_ID":"2020-035AE","EPOCH":"2026-03-09T06:23:56.037120","MEAN_MOTION":15.44772661,"ECCENTRICITY":7.882e-5,"INCLINATION":53.0494,"RA_OF_ASC_NODE":25.4082,"ARG_OF_PERICENTER":198.8556,"MEAN_ANOMALY":161.242,"EPHEMERIS_TYPE":0,"CLASSIFICATION_TYPE":"U","NORAD_CAT_ID":45685,"ELEMENT_SET_NO":999,"REV_AT_EPOCH":31928,"BSTAR":0.0017105302,"MEAN_MOTION_DOT":0.00081749,"MEAN_MOTION_DDOT":0},{"OBJECT_NAME":"KORONAS-FOTON","OBJECT_ID":"2009-003A","EPOCH":"2026-03-09T19:53:57.402240","MEAN_MOTION":15.43324779,"ECCENTRICITY":0.00113168,"INCLINATION":82.4276,"RA_OF_ASC_NODE":275.7327,"ARG_OF_PERICENTER":149.0532,"MEAN_ANOMALY":211.1384,"EPHEMERIS_TYPE":0,"CLASSIFICATION_TYPE":"U","NORAD_CAT_ID":33504,"ELEMENT_SET_NO":999,"REV_AT_EPOCH":94576,"BSTAR":0.00025164596,"MEAN_MOTION_DOT":0.00011273,"MEAN_MOTION_DDOT":0}]
